{"type": "FeatureCollection", "features": [ {"type": "Feature", "properties": {"norad_id": 33917, "name": "COSMOS 2251 DEB", "group": "cosmos-2251-debris", "lat": -17.002755130846424, "lon": -77.31366384319048, "alt_km": 762.0238231100438, "timestamp": "2025-12-27T19:21:59.138420+00:00", "meta": {"OBJECT_NAME": "COSMOS 2251 DEB", "OBJECT_ID": "1993-036DW", "EPOCH": "2025-12-27T07:52:49.891008", "MEAN_MOTION": 13.69395836, "ECCENTRICITY": 0.0331064, "INCLINATION": 74.1073, "RA_OF_ASC_NODE": 98.4731, "ARG_OF_PERICENTER": 196.254, "MEAN_ANOMALY": 162.7759, "EPHEMERIS_TYPE": 0, "CLASSIFICATION_TYPE": "U", "NORAD_CAT_ID": 33917, "ELEMENT_SET_NO": 999, "REV_AT_EPOCH": 83933, "BSTAR": 0.0012085, "MEAN_MOTION_DOT": 1.522e-05, "MEAN_MOTION_DDOT": 0}, "tle": {"line1": "1 33917U 93036DW  25361.32835522  .00001522  00000+0  12085-2 0  9998", "line2": "2 33917  74.1073  98.4731 0331064 196.2540 162.7759 13.69395836839339"}}, "geometry": {"type": "Point", "coordinates": [-77.31366384319048, -17.002755130846424]}}, {"type": "Feature", "properties": {"norad_id": 33920, "name": "COSMOS 2251 DEB", "group": "cosmos-2251-debris", "lat": 59.435843374841184, "lon": -61.26508954406407, "alt_km": 714.7862811617206, "timestamp": "2025-12-27T19:21:59.138429+00:00", "meta": {"OBJECT_NAME": "COSMOS 2251 DEB", "OBJECT_ID": "1993-036DZ", "EPOCH": "2025-12-27T04:15:33.347520", "MEAN_MOTION": 14.58497819, "ECCENTRICITY": 0.00375268, "INCLINATION": 74.0609, "RA_OF_ASC_NODE": 270.9888, "ARG_OF_PERICENTER": 275.3001, "MEAN_ANOMALY": 84.3883, "EPHEMERIS_TYPE": 0, "CLASSIFICATION_TYPE": "U", "NORAD_CAT_ID": 33920, "ELEMENT_SET_NO": 999, "REV_AT_EPOCH": 88325, "BSTAR": 0.0018965408, "MEAN_MOTION_DOT": 8.876e-05, "MEAN_MOTION_DDOT": 0}, "tle": {"line1": "1 33920U 93036DZ  25361.17746930  .00008876  00000+0  18965-2 0  9991", "line2": "2 33920  74.0609 270.9888 0037526 275.3001  84.3883 14.58497819883254"}}, "geometry": {"type": "Point", "coordinates": [-61.26508954406407, 59.435843374841184]}}, {"type": "Feature", "properties": {"norad_id": 33922, "name": "COSMOS 2251 DEB", "group": "cosmos-2251-debris", "lat": 73.37295335128, "lon": -167.18095497264022, "alt_km": 732.7716241443077, "timestamp": "2025-12-27T19:21:59.138438+00:00", "meta": {"OBJECT_NAME": "COSMOS 2251 DEB", "OBJECT_ID": "1993-036EB", "EPOCH": "2025-12-26T10:09:19.550880", "MEAN_MOTION": 14.49558695, "ECCENTRICITY": 0.0023079, "INCLINATION": 74.0472, "RA_OF_ASC_NODE": 122.1065, "ARG_OF_PERICENTER": 231.2219, "MEAN_ANOMALY": 195.9664, "EPHEMERIS_TYPE": 0, "CLASSIFICATION_TYPE": "U", "NORAD_CAT_ID": 33922, "ELEMENT_SET_NO": 999, "REV_AT_EPOCH": 88776, "BSTAR": 0.00055696, "MEAN_MOTION_DOT": 2.117e-05, "MEAN_MOTION_DDOT": 0}, "tle": {"line1": "1 33922U 93036EB  25360.42314295  .00002117  00000+0  55696-3 0  9990", "line2": "2 33922  74.0472 122.1065 0023079 231.2219 195.9664 14.49558695887765"}}, "geometry": {"type": "Point", "coordinates": [-167.18095497264022, 73.37295335128]}}, {"type": "Feature", "properties": {"norad_id": 33924, "name": "COSMOS 2251 DEB", "group": "cosmos-2251-debris", "lat": 36.76969419739938, "lon": -101.56455094192611, "alt_km": 1208.725669497635, "timestamp": "2025-12-27T19:21:59.138447+00:00", "meta": {"OBJECT_NAME": "COSMOS 2251 DEB", "OBJECT_ID": "1993-036ED", "EPOCH": "2025-12-27T10:17:00.068928", "MEAN_MOTION": 13.50242091, "ECCENTRICITY": 0.040374, "INCLINATION": 73.9127, "RA_OF_ASC_NODE": 246.5906, "ARG_OF_PERICENTER": 279.4456, "MEAN_ANOMALY": 76.1239, "EPHEMERIS_TYPE": 0, "CLASSIFICATION_TYPE": "U", "NORAD_CAT_ID": 33924, "ELEMENT_SET_NO": 999, "REV_AT_EPOCH": 82937, "BSTAR": 0.00045885, "MEAN_MOTION_DOT": 4.62e-06, "MEAN_MOTION_DDOT": 0}, "tle": {"line1": "1 33924U 93036ED  25361.42847302  .00000462  00000+0  45885-3 0  9993", "line2": "2 33924  73.9127 246.5906 0403740 279.4456  76.1239 13.50242091829373"}}, "geometry": {"type": "Point", "coordinates": [-101.56455094192611, 36.76969419739938]}}, {"type": "Feature", "properties": {"norad_id": 33928, "name": "COSMOS 2251 DEB", "group": "cosmos-2251-debris", "lat": 5.437656957230442, "lon": -157.37663103165616, "alt_km": 770.1994789993851, "timestamp": "2025-12-27T19:21:59.138456+00:00", "meta": {"OBJECT_NAME": "COSMOS 2251 DEB", "OBJECT_ID": "1993-036EH", "EPOCH": "2025-12-27T11:55:29.015040", "MEAN_MOTION": 14.47433289, "ECCENTRICITY": 0.0062143, "INCLINATION": 73.9252, "RA_OF_ASC_NODE": 24.7798, "ARG_OF_PERICENTER": 315.9426, "MEAN_ANOMALY": 43.6788, "EPHEMERIS_TYPE": 0, "CLASSIFICATION_TYPE": "U", "NORAD_CAT_ID": 33928, "ELEMENT_SET_NO": 999, "REV_AT_EPOCH": 88858, "BSTAR": 0.0003109, "MEAN_MOTION_DOT": 1.139e-05, "MEAN_MOTION_DDOT": 0}, "tle": {"line1": "1 33928U 93036EH  25361.49686360  .00001139  00000+0  31090-3 0  9994", "line2": "2 33928  73.9252  24.7798 0062143 315.9426  43.6788 14.47433289888586"}}, "geometry": {"type": "Point", "coordinates": [-157.37663103165616, 5.437656957230442]}}, {"type": "Feature", "properties": {"norad_id": 33932, "name": "COSMOS 2251 DEB", "group": "cosmos-2251-debris", "lat": -22.704187066288238, "lon": 115.00766498167506, "alt_km": 791.2371223132996, "timestamp": "2025-12-27T19:21:59.138465+00:00", "meta": {"OBJECT_NAME": "COSMOS 2251 DEB", "OBJECT_ID": "1993-036EM", "EPOCH": "2025-12-27T05:04:22.412064", "MEAN_MOTION": 14.38801134, "ECCENTRICITY": 0.0036067, "INCLINATION": 74.0343, "RA_OF_ASC_NODE": 289.2263, "ARG_OF_PERICENTER": 2.0411, "MEAN_ANOMALY": 358.0884, "EPHEMERIS_TYPE": 0, "CLASSIFICATION_TYPE": "U", "NORAD_CAT_ID": 33932, "ELEMENT_SET_NO": 999, "REV_AT_EPOCH": 88206, "BSTAR": 0.00054353, "MEAN_MOTION_DOT": 1.657e-05, "MEAN_MOTION_DDOT": 0}, "tle": {"line1": "1 33932U 93036EM  25361.21137051  .00001657  00000+0  54353-3 0  9999", "line2": "2 33932  74.0343 289.2263 0036067   2.0411 358.0884 14.38801134882068"}}, "geometry": {"type": "Point", "coordinates": [115.00766498167506, -22.704187066288238]}}, {"type": "Feature", "properties": {"norad_id": 33933, "name": "COSMOS 2251 DEB", "group": "cosmos-2251-debris", "lat": 50.37035074692891, "lon": -167.4732020269172, "alt_km": 774.7588658608101, "timestamp": "2025-12-27T19:21:59.138475+00:00", "meta": {"OBJECT_NAME": "COSMOS 2251 DEB", "OBJECT_ID": "1993-036EN", "EPOCH": "2025-12-27T12:05:02.185728", "MEAN_MOTION": 14.33512195, "ECCENTRICITY": 0.0071108, "INCLINATION": 74.0887, "RA_OF_ASC_NODE": 33.2279, "ARG_OF_PERICENTER": 37.2605, "MEAN_ANOMALY": 323.3449, "EPHEMERIS_TYPE": 0, "CLASSIFICATION_TYPE": "U", "NORAD_CAT_ID": 33933, "ELEMENT_SET_NO": 999, "REV_AT_EPOCH": 87996, "BSTAR": 0.0003197, "MEAN_MOTION_DOT": 8.84e-06, "MEAN_MOTION_DDOT": 0}, "tle": {"line1": "1 33933U 93036EN  25361.50349752  .00000884  00000+0  31970-3 0  9996", "line2": "2 33933  74.0887  33.2279 0071108  37.2605 323.3449 14.33512195879964"}}, "geometry": {"type": "Point", "coordinates": [-167.4732020269172, 50.37035074692891]}}, {"type": "Feature", "properties": {"norad_id": 33934, "name": "COSMOS 2251 DEB", "group": "cosmos-2251-debris", "lat": -13.169174699193645, "lon": -104.29754807600561, "alt_km": 689.2590831771167, "timestamp": "2025-12-27T19:21:59.138484+00:00", "meta": {"OBJECT_NAME": "COSMOS 2251 DEB", "OBJECT_ID": "1993-036EP", "EPOCH": "2025-12-27T06:57:51.278112", "MEAN_MOTION": 14.59226401, "ECCENTRICITY": 0.0014962, "INCLINATION": 74.0378, "RA_OF_ASC_NODE": 72.8468, "ARG_OF_PERICENTER": 196.2127, "MEAN_ANOMALY": 163.8562, "EPHEMERIS_TYPE": 0, "CLASSIFICATION_TYPE": "U", "NORAD_CAT_ID": 33934, "ELEMENT_SET_NO": 999, "REV_AT_EPOCH": 88951, "BSTAR": 0.00092344, "MEAN_MOTION_DOT": 4.337e-05, "MEAN_MOTION_DDOT": 0}, "tle": {"line1": "1 33934U 93036EP  25361.29017683  .00004337  00000+0  92344-3 0  9997", "line2": "2 33934  74.0378  72.8468 0014962 196.2127 163.8562 14.59226401889514"}}, "geometry": {"type": "Point", "coordinates": [-104.29754807600561, -13.169174699193645]}}, {"type": "Feature", "properties": {"norad_id": 33936, "name": "COSMOS 2251 DEB", "group": "cosmos-2251-debris", "lat": -3.868608384786779, "lon": -170.20454287737135, "alt_km": 677.8964882782593, "timestamp": "2025-12-27T19:21:59.138492+00:00", "meta": {"OBJECT_NAME": "COSMOS 2251 DEB", "OBJECT_ID": "1993-036ER", "EPOCH": "2025-12-27T07:01:09.592032", "MEAN_MOTION": 14.60359367, "ECCENTRICITY": 0.0026574, "INCLINATION": 74.0185, "RA_OF_ASC_NODE": 9.6679, "ARG_OF_PERICENTER": 161.4829, "MEAN_ANOMALY": 198.7311, "EPHEMERIS_TYPE": 0, "CLASSIFICATION_TYPE": "U", "NORAD_CAT_ID": 33936, "ELEMENT_SET_NO": 999, "REV_AT_EPOCH": 89102, "BSTAR": 0.00072062, "MEAN_MOTION_DOT": 3.474e-05, "MEAN_MOTION_DDOT": 0}, "tle": {"line1": "1 33936U 93036ER  25361.29247213  .00003474  00000+0  72062-3 0  9999", "line2": "2 33936  74.0185   9.6679 0026574 161.4829 198.7311 14.60359367891027"}}, "geometry": {"type": "Point", "coordinates": [-170.20454287737135, -3.868608384786779]}}, {"type": "Feature", "properties": {"norad_id": 33938, "name": "COSMOS 2251 DEB", "group": "cosmos-2251-debris", "lat": 24.770262481911413, "lon": -173.36881957118788, "alt_km": 741.953268626301, "timestamp": "2025-12-27T19:21:59.138502+00:00", "meta": {"OBJECT_NAME": "COSMOS 2251 DEB", "OBJECT_ID": "1993-036ET", "EPOCH": "2025-12-27T00:05:50.320032", "MEAN_MOTION": 14.46838787, "ECCENTRICITY": 0.0016796, "INCLINATION": 74.0436, "RA_OF_ASC_NODE": 180.5435, "ARG_OF_PERICENTER": 261.5611, "MEAN_ANOMALY": 264.018, "EPHEMERIS_TYPE": 0, "CLASSIFICATION_TYPE": "U", "NORAD_CAT_ID": 33938, "ELEMENT_SET_NO": 999, "REV_AT_EPOCH": 88606, "BSTAR": 0.00054419, "MEAN_MOTION_DOT": 1.949e-05, "MEAN_MOTION_DDOT": 0}, "tle": {"line1": "1 33938U 93036ET  25361.00405463  .00001949  00000+0  54419-3 0  9994", "line2": "2 33938  74.0436 180.5435 0016796 261.5611 264.0180 14.46838787886064"}}, "geometry": {"type": "Point", "coordinates": [-173.36881957118788, 24.770262481911413]}}]}